O3B MPOWER F1           
1 54755U 22174A   24265.39419894 -.00000022  00000+0  00000+0 0  9991
2 54755   0.0543 345.6378 0006558 187.5247  15.6880  5.00113508 33652
